[{"OBJECT_NAME":"TISAT 1","OBJECT_ID":"2010-035E","EPOCH":"2026-03-09T18:10:07.877568","MEAN_MOTION":15.27628633,"ECCENTRICITY":0.00013432,"INCLINATION":98.0645,"RA_OF_ASC_NODE":6.8512,"ARG_OF_PERICENTER":159.303,"MEAN_ANOMALY":200.8262,"EPHEMERIS_TYPE":0,"CLASSIFICATION_TYPE":"U","NORAD_CAT_ID":36799,"ELEMENT_SET_NO":999,"REV_AT_EPOCH":85250,"BSTAR":0.00091004793,"MEAN_MOTION_DOT":0.00024554,"MEAN_MOTION_DDOT":0},{"OBJECT_NAME":"STARLINK-36486","OBJECT_ID":"2026-003B","EPOCH":"2026-03-09T11:21:54.966240","MEAN_MOTION":15.27566267,"ECCENTRICITY":0.00013175,"INCLINATION":43.0011,"RA_OF_ASC_NODE":228.0389,"ARG_OF_PERICENTER":268.1166,"MEAN_ANOMALY":91.9535,"EPHEMERIS_TYPE":0,"CLASSIFICATION_TYPE":"U","NORAD_CAT_ID":67335,"ELEMENT_SET_NO":999,"REV_AT_EPOCH":879,"BSTAR":0.00079221935,"MEAN_MOTION_DOT":0.00021593,"MEAN_MOTION_DDOT":0}]
