TISAT 1                 
1 36799U 10035E   26068.75703561  .00024554  00000+0  91005-3 0  9996
2 36799  98.0645   6.8512 0001343 159.3030 200.8262 15.27628633852505
STARLINK-36486          
1 67335U 26003B   26068.47355285  .00021593  00000+0  79222-3 0  9990
2 67335  43.0011 228.0389 0001317 268.1166  91.9535 15.27566267  8792
